STARLINK-1462
1 15770C 20038AS  21326.14930031  .00004098  00000-0  27458-3 0  3265
2 15770  53.0536  38.0828 0001346  65.6119 181.9705 15.06396700    17
